NORAD_CAT_ID,OBJECT_NAME,OBJECT_TYPE,EPOCH,MEAN_MOTION,ECCENTRICITY,INCLINATION,RA_OF_ASC_NODE,ARG_OF_PERICENTER,MEAN_ANOMALY,BSTAR,MEAN_MOTION_DOT,MEAN_MOTION_DDOT,TLE_LINE0,TLE_LINE1,TLE_LINE2,SEMIMAJOR_AXIS,PERIOD,APOGEE,PERIGEE,DECAYED
52586.0,STARLINK-3910,PAYLOAD,2023-10-12 19:02:44,15.08846181,0.0001363,53.2164,104.6369,89.3392,270.7756,0.00012086,1.636e-05,0.0,0 STARLINK-3910,1 52586U 22051BC  23285.79357219  .00001636  00000-0  12086-3 0  9995,2 52586  53.2164 104.6369 0001363  89.3392 270.7756 15.08846181 78972,6917.861,95.437,540.669,538.784,0.0
52586.0,STARLINK-3910,PAYLOAD,2023-10-13 04:35:03,15.08840429,0.0001344,53.2151,102.8532,86.875,273.2395,2.7413e-05,1.48e-06,0.0,0 STARLINK-3910,1 52586U 22051BC  23286.19101503  .00000148  00000-0  27413-4 0  9991,2 52586  53.2151 102.8532 0001344  86.8750 273.2395 15.08840429 79033,6917.879,95.438,540.674,538.814,0.0
52586.0,STARLINK-3910,PAYLOAD,2023-10-13 18:53:31,15.08844376,0.0001375,53.2156,100.177,89.8148,270.3002,0.00013271,1.825e-05,0.0,0 STARLINK-3910,1 52586U 22051BC  23286.78717320  .00001825  00000-0  13271-3 0  9995,2 52586  53.2156 100.1770 0001375  89.8148 270.3002 15.08844376 79051,6917.867,95.437,540.683,538.781,0.0
52586.0,STARLINK-3910,PAYLOAD,2023-10-14 10:47:23,15.08837851,0.000143,53.2153,97.2017,80.6182,279.4972,-3.2165e-05,-8e-06,0.0,0 STARLINK-3910,1 52586U 22051BC  23287.44957649 -.00000800  00000-0 -32165-4 0  9997,2 52586  53.2153  97.2017 0001430  80.6182 279.4972 15.08837851 79222,6917.887,95.438,540.741,538.763,0.0
52586.0,STARLINK-3910,PAYLOAD,2023-10-14 18:44:19,15.08841943,0.0001475,53.2166,95.7151,80.606,279.5098,5.4229e-05,5.75e-06,0.0,0 STARLINK-3910,1 52586U 22051BC  23287.78077765  .00000575  00000-0  54229-4 0  9998,2 52586  53.2166  95.7151 0001475  80.6060 279.5098 15.08841943 79207,6917.874,95.437,540.76,538.719,0.0
52586.0,STARLINK-3910,PAYLOAD,2023-10-15 04:16:38,15.08839951,0.0001476,53.217,93.9308,85.0629,275.0532,6.2319e-05,7.04e-06,0.0,0 STARLINK-3910,1 52586U 22051BC  23288.17821877  .00000704  00000-0  62319-4 0  9996,2 52586  53.2170  93.9308 0001476  85.0629 275.0532 15.08839951 79263,6917.881,95.438,540.767,538.724,0.0
52586.0,STARLINK-3910,PAYLOAD,2023-10-15 18:35:06,15.08844923,0.0001411,53.2162,91.2542,86.8519,273.2635,3.586e-05,2.83e-06,0.0,0 STARLINK-3910,1 52586U 22051BC  23288.77437719  .00000283  00000-0  35860-4 0  9993,2 52586  53.2162  91.2542 0001411  86.8519 273.2635 15.08844923 79428,6917.865,95.437,540.706,538.754,0.0
52586.0,STARLINK-3910,PAYLOAD,2023-10-16 04:07:25,15.08842349,0.00014,53.2165,89.4689,82.7746,277.3405,8.7159e-06,-1.49e-06,0.0,0 STARLINK-3910,1 52586U 22051BC  23289.17181901 -.00000149  00000-0  87159-5 0  9998,2 52586  53.2165  89.4689 0001400  82.7746 277.3405 15.08842349 79416,6917.873,95.437,540.707,538.77,0.0
52586.0,STARLINK-3910,PAYLOAD,2023-10-16 16:50:30,15.08839974,0.0001514,53.2166,87.0896,85.4719,274.6446,6.7448e-05,7.86e-06,0.0,0 STARLINK-3910,1 52586U 22051BC  23289.70174104  .00000786  00000-0  67448-4 0  9998,2 52586  53.2166  87.0896 0001514  85.4719 274.6446 15.08839974 79568,6917.88,95.438,540.793,538.698,0.0
52586.0,STARLINK-3910,PAYLOAD,2023-10-17 19:52:04,15.08811256,0.0001535,53.2173,82.0364,88.5343,271.5825,0.00069494,0.00010781,0.0,0 STARLINK-3910,1 52586U 22051BC  23290.82782589  .00010781  00000-0  69494-3 0  9993,2 52586  53.2173  82.0364 0001535  88.5343 271.5825 15.08811256 79662,6917.968,95.439,540.895,538.771,0.0
52586.0,STARLINK-3910,PAYLOAD,2023-10-18 10:10:32,15.08838105,0.0001675,53.2173,79.3586,95.0776,265.0407,6.5368e-05,7.52e-06,0.0,0 STARLINK-3910,1 52586U 22051BC  23291.42398275  .00000752  00000-0  65368-4 0  9999,2 52586  53.2173  79.3586 0001675  95.0776 265.0407 15.08838105 79829,6917.886,95.438,540.91,538.592,0.0
52586.0,STARLINK-3910,PAYLOAD,2023-10-18 16:32:05,15.08834604,0.0001632,53.2175,78.169,88.3185,271.7994,3.0338e-05,1.95e-06,0.0,0 STARLINK-3910,1 52586U 22051BC  23291.68894678  .00000195  00000-0  30338-4 0  9995,2 52586  53.2175  78.1690 0001632  88.3185 271.7994 15.08834604 79797,6917.897,95.438,540.891,538.633,0.0
52586.0,STARLINK-3910,PAYLOAD,2023-10-19 10:01:18,15.08876636,0.0004398,53.2113,74.8959,89.1712,270.9784,-0.00039471,-6.573e-05,0.0,0 STARLINK-3910,1 52586U 22051BC  23292.41757532 -.00006573  00000-0 -39471-3 0  9998,2 52586  53.2113  74.8959 0004398  89.1712 270.9784 15.08876636 79976,6917.768,95.435,542.676,536.591,0.0
52586.0,STARLINK-3910,PAYLOAD,2023-10-20 01:55:10,15.08838378,0.00023,53.2157,71.9255,90.9602,269.1654,0.0002575,3.812e-05,0.0,0 STARLINK-3910,1 52586U 22051BC  23293.07997829  .00003812  00000-0  25750-3 0  9992,2 52586  53.2157  71.9255 0002300  90.9602 269.1654 15.08838378 80070,6917.885,95.438,541.341,538.159,0.0
52586.0,STARLINK-3910,PAYLOAD,2023-10-20 09:52:06,15.08837883,0.0001475,53.2136,70.4357,102.4671,257.6486,-7.2117e-06,-4.03e-06,0.0,0 STARLINK-3910,1 52586U 22051BC  23293.41118236 -.00000403  00000-0 -72117-5 0  9993,2 52586  53.2136  70.4357 0001475 102.4671 257.6486 15.08837883 80122,6917.887,95.438,540.772,538.731,0.0
52586.0,STARLINK-3910,PAYLOAD,2023-10-21 11:18:16,15.08839905,0.0001439,53.2154,65.6781,100.2001,259.9153,-1.6504e-05,-5.51e-06,0.0,0 STARLINK-3910,1 52586U 22051BC  23294.47102489 -.00000551  00000-0 -16504-4 0  9994,2 52586  53.2154  65.6781 0001439 100.2001 259.9153 15.08839905 80282,6917.881,95.438,540.741,538.75,0.0
52586.0,STARLINK-3910,PAYLOAD,2023-10-21 19:15:09,15.08882853,0.0001379,53.2161,64.1934,111.3521,248.7619,-0.00080208,-0.00013045,0.0,0 STARLINK-3910,1 52586U 22051BC  23294.80219303 -.00013045  00000-0 -80208-3 0  9998,2 52586  53.2161  64.1934 0001379 111.3521 248.7619 15.08882853 80336,6917.749,95.435,540.568,538.66,0.0
52586.0,STARLINK-3910,PAYLOAD,2023-10-22 01:36:45,15.08826797,0.0001473,53.2122,63.0025,83.3521,276.7639,0.00014641,2.042e-05,0.0,0 STARLINK-3910,1 52586U 22051BC  23295.06718925  .00002042  00000-0  14641-3 0  9992,2 52586  53.2122  63.0025 0001473  83.3521 276.7639 15.08826797 80377,6917.921,95.438,540.805,538.767,0.0
52586.0,STARLINK-3910,PAYLOAD,2023-10-22 14:19:50,15.08827856,6.53e-05,53.2172,60.6252,76.8785,283.228,-2.0949e-05,-6.21e-06,0.0,0 STARLINK-3910,1 52586U 22051BC  23295.59711100 -.00000621  00000-0 -20949-4 0  9990,2 52586  53.2172  60.6252 0000653  76.8785 283.2280 15.08827856 80388,6917.918,95.438,540.234,539.331,0.0
52586.0,STARLINK-3910,PAYLOAD,2023-10-22 17:30:36,15.08834141,7.59e-05,53.2162,60.0306,66.749,293.3582,6.9017e-05,8.11e-06,0.0,0 STARLINK-3910,1 52586U 22051BC  23295.72958927  .00000811  00000-0  69017-4 0  9993,2 52586  53.2162  60.0306 0000759  66.7490 293.3582 15.08834141 80404,6917.898,95.438,540.288,539.238,0.0
52586.0,STARLINK-3910,PAYLOAD,2023-10-23 12:35:14,15.08840152,0.0001167,53.216,56.4623,95.5798,264.5327,0.00016526,2.343e-05,0.0,0 STARLINK-3910,1 52586U 22051BC  23296.52446943  .00002343  00000-0  16526-3 0  9990,2 52586  53.2160  56.4623 0001167  95.5798 264.5327 15.08840152 80594,6917.88,95.438,540.552,538.938,0.0
52586.0,STARLINK-3910,PAYLOAD,2023-10-24 12:26:01,15.08839636,0.0001089,53.2176,52.0016,93.0706,267.0411,0.00026508,3.933e-05,0.0,0 STARLINK-3910,1 52586U 22051BC  23297.51807317  .00003933  00000-0  26508-3 0  9993,2 52586  53.2176  52.0016 0001089  93.0706 267.0411 15.08839636 80748,6917.882,95.438,540.5,538.993,0.0
52586.0,STARLINK-3910,PAYLOAD,2023-10-24 14:01:24,15.0884046,0.0001108,53.2176,51.7049,90.9421,269.1698,0.00026791,3.979e-05,0.0,0 STARLINK-3910,1 52586U 22051BC  23297.58431315  .00003979  00000-0  26791-3 0  9995,2 52586  53.2176  51.7049 0001108  90.9421 269.1698 15.08840460 80682,6917.879,95.438,540.51,538.977,0.0
52586.0,STARLINK-3910,PAYLOAD,2023-10-25 12:16:48,15.08846986,0.0001242,53.2183,47.5427,88.4246,271.6888,0.00015801,2.228e-05,0.0,0 STARLINK-3910,1 52586U 22051BC  23298.51166928  .00002228  00000-0  15801-3 0  9990,2 52586  53.2183  47.5427 0001242  88.4246 271.6888 15.08846986 80823,6917.859,95.437,540.583,538.865,0.0
52586.0,STARLINK-3910,PAYLOAD,2023-10-26 00:59:53,15.08841978,0.0001029,53.2195,45.1637,85.5145,274.5965,0.00022635,3.317e-05,0.0,0 STARLINK-3910,1 52586U 22051BC  23299.04159066  .00003317  00000-0  22635-3 0  9997,2 52586  53.2195  45.1637 0001029  85.5145 274.5965 15.08841978 80972,6917.874,95.437,540.451,539.027,0.0
52586.0,STARLINK-3910,PAYLOAD,2023-10-26 13:42:58,15.08846271,0.0001399,53.2186,42.7851,95.0011,265.1141,0.00014422,2.008e-05,0.0,0 STARLINK-3910,1 52586U 22051BC  23299.57150876  .00002008  00000-0  14422-3 0  9996,2 52586  53.2186  42.7851 0001399  95.0011 265.1141 15.08846271 80985,6917.861,95.437,540.694,538.758,0.0
52586.0,STARLINK-3910,PAYLOAD,2023-10-27 13:33:44,15.08856221,0.0001454,53.2183,38.3249,90.4846,269.6313,0.00029473,4.408e-05,0.0,0 STARLINK-3910,1 52586U 22051BC  23300.56510190  .00004408  00000-0  29473-3 0  9995,2 52586  53.2183  38.3249 0001454  90.4846 269.6313 15.08856221 81203,6917.831,95.437,540.702,538.69,0.0
52586.0,STARLINK-3910,PAYLOAD,2023-10-27 23:06:03,15.08845443,0.0001086,53.2171,36.5397,85.2219,274.8897,9.5131e-05,1.227e-05,0.0,0 STARLINK-3910,1 52586U 22051BC  23300.96254368  .00001227  00000-0  95131-4 0  9992,2 52586  53.2171  36.5397 0001086  85.2219 274.8897 15.08845443 81266,6917.864,95.437,540.48,538.977,0.0
52586.0,STARLINK-3910,PAYLOAD,2023-10-28 13:24:32,15.0883429,0.0001388,53.2169,33.8659,98.0523,262.0626,-9.5504e-06,-4.4e-06,0.0,0 STARLINK-3910,1 52586U 22051BC  23301.55871350 -.00000440  00000-0 -95504-5 0  9997,2 52586  53.2169  33.8659 0001388  98.0523 262.0626 15.08834290 81356,6917.898,95.438,540.723,538.803,0.0
52586.0,STARLINK-3910,PAYLOAD,2023-10-28 22:56:51,15.08846106,0.0001377,53.2171,32.081,105.7157,254.3987,0.00015077,2.113e-05,0.0,0 STARLINK-3910,1 52586U 22051BC  23301.95614699  .00002113  00000-0  15077-3 0  9994,2 52586  53.2171  32.0810 0001377 105.7157 254.3987 15.08846106 81416,6917.862,95.437,540.679,538.774,0.0
